H1 CPF 01  gfz 2021 07 27 12  7082 terrasarx 
H2 0702601  6201 31698    2021 07 27 12 59 42 2021 08 01 00 00 42   120 1 1  0 0 0
H9
10 0 59424  56142.000000  0   -4883101.236  -2978048.366  -3847930.637
10 0 59424  56262.000000  0   -4509009.280  -2530587.384  -4559795.723
10 0 59424  56382.000000  0   -4048361.837  -2046427.617  -5191809.233
10 0 59424  56502.000000  0   -3508687.983  -1535475.032  -5732999.098
10 0 59424  56622.000000  0   -2899042.260  -1007935.407  -6173996.248
10 0 59424  56742.000000  0   -2229846.688   -474111.429  -6507185.817
10 0 59424  56862.000000  0   -1512708.527     55795.856  -6726827.071
10 0 59424  56982.000000  0    -760218.854    571877.338  -6829140.611
10 0 59424  57102.000000  0      14264.352   1064696.036  -6812366.337
10 0 59424  57222.000000  0     796847.215   1525454.997  -6676790.058
10 0 59424  57342.000000  0    1573342.782   1946150.182  -6424741.673
10 0 59424  57462.000000  0    2329523.359   2319707.983  -6060559.558
10 0 59424  57582.000000  0    3051377.183   2640103.644  -5590523.656
10 0 59424  57702.000000  0    3725364.807   2902458.852  -5022756.670
10 0 59424  57822.000000  0    4338673.581   3103118.284  -4367096.345
10 0 59424  57942.000000  0    4879465.706   3239702.917  -3634935.530
10 0 59424  58062.000000  0    5337112.784   3311137.705  -2839032.055
10 0 59424  58182.000000  0    5702412.081   3317654.446  -1993292.711
10 0 59424  58302.000000  0    5967780.752   3260768.123  -1112531.659
10 0 59424  58422.000000  0    6127420.309   3143225.837   -212208.793
10 0 59424  58542.000000  0    6177448.218   2968930.224    691846.825
10 0 59424  58662.000000  0    6115992.048   2742837.741   1583722.671
10 0 59424  58782.000000  0    5943243.163   2470837.182   2447711.027
10 0 59424  58902.000000  0    5661469.560   2159609.005   3268594.881
10 0 59424  59022.000000  0    5274985.259   1816468.990   4031923.791
10 0 59424  59142.000000  0    4790078.212   1449201.362   4724273.342
10 0 59424  59262.000000  0    4214899.991   1065885.405   5333481.423
10 0 59424  59382.000000  0    3559321.215    674719.817   5848862.123
10 0 59424  59502.000000  0    2834751.472    283848.670   6261389.390
10 0 59424  59622.000000  0    2053933.996    -98805.633   6563847.492
10 0 59424  59742.000000  0    1230718.126   -465700.687   6750951.728
10 0 59424  59862.000000  0     379810.647   -809821.604   6819436.704
10 0 59424  59982.000000  0    -483488.532  -1124814.166   6768108.751
10 0 59424  60102.000000  0   -1343560.926  -1405101.841   6597864.705
10 0 59424  60222.000000  0   -2184750.765  -1645984.532   6311675.944
10 0 59424  60342.000000  0   -2991647.625  -1843716.624   5914539.774
10 0 59424  60462.000000  0   -3749369.827  -1995565.559   5413400.572
10 0 59424  60582.000000  0   -4443844.269  -2099849.996   4817034.428
10 0 59424  60702.000000  0   -5062073.836  -2155955.292   4135900.162
10 0 59424  60822.000000  0   -5592387.741  -2164325.382   3381958.989
10 0 59424  60942.000000  0   -6024669.581  -2126431.627   2568466.810
10 0 59424  61062.000000  0   -6350559.597  -2044720.596   1709741.750
10 0 59424  61182.000000  0   -6563626.164  -1922540.825    820907.428
10 0 59424  61302.000000  0   -6659497.405  -1764049.121    -82381.087
10 0 59424  61422.000000  0   -6635953.056  -1574099.381   -984221.430
10 0 59424  61542.000000  0   -6492972.020  -1358117.011  -1868753.430
10 0 59424  61662.000000  0   -6232735.238  -1121962.653  -2720445.845
10 0 59424  61782.000000  0   -5859584.756   -871788.978  -3524374.668
10 0 59424  61902.000000  0   -5379940.529   -613893.228  -4266487.428
10 0 59424  62022.000000  0   -4802177.649   -354569.322  -4933847.898
10 0 59424  62142.000000  0   -4136467.530    -99963.962  -5514856.794
10 0 59424  62262.000000  0   -3394587.198    144060.098  -5999445.333
10 0 59424  62382.000000  0   -2589702.256    372051.102  -6379237.981
10 0 59424  62502.000000  0   -1736129.595    579082.601  -6647685.168
10 0 59424  62622.000000  0    -849082.207    760853.205  -6800165.771
10 0 59424  62742.000000  0      55598.508    913771.639  -6834057.093
10 0 59424  62862.000000  0     961718.081   1035024.399  -6748774.405
10 0 59424  62982.000000  0    1853011.703   1122625.670  -6545782.771
10 0 59424  63102.000000  0    2713430.753   1175449.843  -6228574.926
10 0 59424  63222.000000  0    3527427.226   1193245.047  -5802616.960
10 0 59424  63342.000000  0    4280231.169   1176627.388  -5275262.779
10 0 59424  63462.000000  0    4958119.498   1127056.383  -4655639.290
10 0 59424  63582.000000  0    5548671.676   1046792.074  -3954499.446
10 0 59424  63702.000000  0    6041005.259    938833.845  -3184044.983
10 0 59424  63822.000000  0    6425987.007    806841.992  -2357721.702
10 0 59424  63942.000000  0    6696415.469    655044.029  -1489988.800
10 0 59424  64062.000000  0    6847168.277    488126.865   -596064.680
10 0 59424  64182.000000  0    6875308.738    311117.699    308344.136
10 0 59424  64302.000000  0    6780150.544    129257.357   1207324.989
10 0 59424  64422.000000  0    6563278.183    -52132.626   2085047.562
10 0 59424  64542.000000  0    6228520.596   -227784.156   2926052.421
10 0 59424  64662.000000  0    5781878.736   -392615.486   3715531.478
10 0 59424  64782.000000  0    5231409.935   -541858.149   4439593.655
10 0 59424  64902.000000  0    4587074.580   -671175.745   5085512.806
10 0 59424  65022.000000  0    3860544.478   -776772.086   5641951.900
10 0 59424  65142.000000  0    3064981.342   -855484.304   6099158.154
10 0 59424  65262.000000  0    2214790.650   -904860.987   6449129.042
10 0 59424  65382.000000  0    1325355.870   -923223.265   6685746.701
10 0 59424  65502.000000  0     412755.911   -909707.924   6804879.991
10 0 59424  65622.000000  0    -506527.366   -864291.142   6804450.909
10 0 59424  65742.000000  0   -1415905.970   -787793.390   6684467.417
10 0 59424  65862.000000  0   -2298983.570   -681864.654   6447022.913
10 0 59424  65982.000000  0   -3139849.490   -548950.370   6096262.278
10 0 59424  66102.000000  0   -3923366.213   -392238.558   5638315.458
10 0 59424  66222.000000  0   -4635446.140   -215589.457   5081197.045
10 0 59424  66342.000000  0   -5263311.574    -23448.482   4434671.629
10 0 59424  66462.000000  0   -5795732.269    179255.674   3710086.937
10 0 59424  66582.000000  0   -6223235.162    387226.142   2920177.298
10 0 59424  66702.000000  0   -6538283.186    594923.825   2078840.869
10 0 59424  66822.000000  0   -6735417.769    796701.149   1200892.268
10 0 59424  66942.000000  0   -6811361.273    986939.786    301795.899
10 0 59424  67062.000000  0   -6765075.542   1160189.599   -602615.020
10 0 59424  67182.000000  0   -6597774.086   1311304.782  -1496426.693
10 0 59424  67302.000000  0   -6312889.167   1435573.228  -2363932.315
10 0 59424  67422.000000  0   -5915996.570   1528837.875  -3189915.268
10 0 59424  67542.000000  0   -5414695.664   1587604.738  -3959921.969
10 0 59424  67662.000000  0   -4818450.936   1609135.099  -4660514.963
10 0 59424  67782.000000  0   -4138400.839   1591521.012  -5279503.526
10 0 59424  67902.000000  0   -3387138.872   1533742.133  -5806147.796
10 0 59424  68022.000000  0   -2578473.235   1435703.047  -6231335.096
10 0 59424  68142.000000  0   -1727168.813   1298250.500  -6547727.013
10 0 59424  68262.000000  0    -848675.986   1123171.245  -6749874.099
10 0 59424  68382.000000  0      41146.241    913169.588  -6834298.763
10 0 59424  68502.000000  0     926309.107    671826.564  -6799548.285
10 0 59424  68622.000000  0    1790974.603    403540.101  -6646219.671
10 0 59424  68742.000000  0    2619733.357    113446.735  -6376950.053
10 0 59424  68862.000000  0    3397874.018   -192673.031  -5996376.486
10 0 59424  68982.000000  0    4111641.684   -508505.547  -5511063.330
10 0 59424  69102.000000  0    4748480.330   -827328.719  -4929400.084
10 0 59424  69222.000000  0    5297259.064  -1142149.582  -4261468.725
10 0 59424  69342.000000  0    5748474.831  -1445851.723  -3518879.002
10 0 59424  69462.000000  0    6094427.427  -1731349.819  -2714574.891
10 0 59424  69582.000000  0    6329362.830  -1991748.331  -1862614.071
10 0 59424  69702.000000  0    6449580.456  -2220500.444   -977923.420
10 0 59424  69822.000000  0    6453501.201  -2411562.833    -76035.427
10 0 59424  69942.000000  0    6341694.097  -2559543.023    827189.937
10 0 59424  70062.000000  0    6116859.933  -2659834.567   1715852.213
10 0 59424  70182.000000  0    5783771.050  -2708737.039   2574299.933
10 0 59424  70302.000000  0    5349169.294  -2703557.591   3387414.838
10 0 59424  70422.000000  0    4821624.014  -2642690.414   4140885.321
10 0 59424  70542.000000  0    4211356.296  -2525672.904   4821461.020
10 0 59424  70662.000000  0    3530034.302  -2353218.871   5417188.120
10 0 59424  70782.000000  0    2790540.518  -2127226.350   5917618.512
10 0 59424  70902.000000  0    2006720.909  -1850759.861   6313988.106
10 0 59424  71022.000000  0    1193120.608  -1528009.203   6599364.621
10 0 59424  71142.000000  0     364710.559  -1164225.076   6768762.927
10 0 59424  71262.000000  0    -463389.339   -765632.289   6819226.322
10 0 59424  71382.000000  0   -1276185.375   -339322.648   6749873.969
10 0 59424  71502.000000  0   -2059080.128    106870.893   6561915.206
10 0 59424  71622.000000  0   -2798133.507    564517.585   6258630.046
10 0 59424  71742.000000  0   -3480311.279   1024747.110   5845316.132
10 0 59424  71862.000000  0   -4093717.663   1478420.175   5329202.464
10 0 59424  71982.000000  0   -4627808.339   1916308.949   4719329.431
10 0 59424  72102.000000  0   -5073578.904   2329284.562   4026395.493
10 0 59424  72222.000000  0   -5423724.135   2708507.452   3262572.743
10 0 59424  72342.000000  0   -5672764.928   3045615.867   2441294.637
10 0 59424  72462.000000  0   -5817141.064   3332909.087   1577019.138
10 0 59424  72582.000000  0   -5855266.707   3563521.281    684969.343
99
